{
  "norad_id": 65779,
  "name": "KUIPER-00166",
  "history": [
    {
      "epoch": "2026-03-28T21:11:48.281280Z",
      "apogee_km": 630.1271757566165,
      "perigee_km": 628.6796982039532,
      "latitude_deg": -4.341475211689835e-05,
      "longitude_deg": 154.0044388508451,
      "height_km": 630.2513074684977,
      "semi_major_axis_km": 7007.5404369802845,
      "eccentricity": 0.00010328,
      "inclination_deg": 51.9031,
      "raan_deg": 298.2529,
      "arg_perigee_deg": 98.1083,
      "mean_anomaly_deg": 261.9996,
      "mean_motion_rev_day": 14.79974877
    },
    {
      "epoch": "2026-03-29T23:07:39.404928Z",
      "apogee_km": 629.8213873946734,
      "perigee_km": 629.1258119665499,
      "latitude_deg": 4.9037041660502676e-05,
      "longitude_deg": 119.19875329156032,
      "height_km": 630.4328449269007,
      "semi_major_axis_km": 7007.610599680612,
      "eccentricity": 4.963e-05,
      "inclination_deg": 51.9025,
      "raan_deg": 293.4751,
      "arg_perigee_deg": 127.7118,
      "mean_anomaly_deg": 232.389,
      "mean_motion_rev_day": 14.7995265
    },
    {
      "epoch": "2026-03-30T13:42:51.756768Z",
      "apogee_km": 630.2243772355005,
      "perigee_km": 628.9325749646359,
      "latitude_deg": 1.539637539982832e-05,
      "longitude_deg": -102.8879953898394,
      "height_km": 630.2900010450916,
      "semi_major_axis_km": 7007.7154761000675,
      "eccentricity": 9.217e-05,
      "inclination_deg": 51.9041,
      "raan_deg": 290.7889,
      "arg_perigee_deg": 86.9396,
      "mean_anomaly_deg": 273.1672,
      "mean_motion_rev_day": 14.79919427
    },
    {
      "epoch": "2026-03-30T20:11:50.423712Z",
      "apogee_km": 630.2120356521664,
      "perigee_km": 628.9737697783567,
      "latitude_deg": -2.753253341669901e-05,
      "longitude_deg": 158.4057800166046,
      "height_km": 630.3801564075991,
      "semi_major_axis_km": 7007.729902715261,
      "eccentricity": 8.835e-05,
      "inclination_deg": 51.9025,
      "raan_deg": 289.5934,
      "arg_perigee_deg": 93.8306,
      "mean_anomaly_deg": 266.2757,
      "mean_motion_rev_day": 14.79914857
    },
    {
      "epoch": "2026-03-31T05:55:18.707520Z",
      "apogee_km": 630.2090461566031,
      "perigee_km": 629.0177285907503,
      "latitude_deg": -5.602336535529532e-05,
      "longitude_deg": 10.347037149428393,
      "height_km": 630.3502423864173,
      "semi_major_axis_km": 7007.750387373677,
      "eccentricity": 8.5e-05,
      "inclination_deg": 51.9024,
      "raan_deg": 287.8019,
      "arg_perigee_deg": 89.1275,
      "mean_anomaly_deg": 270.9784,
      "mean_motion_rev_day": 14.79908368
    },
    {
      "epoch": "2026-04-01T19:11:56.753088Z",
      "apogee_km": 630.1554870380787,
      "perigee_km": 629.0664830012065,
      "latitude_deg": -2.2433216111840012e-05,
      "longitude_deg": 162.789820548378,
      "height_km": 630.3365262858041,
      "semi_major_axis_km": 7007.747985019642,
      "eccentricity": 7.77e-05,
      "inclination_deg": 51.902,
      "raan_deg": 280.9341,
      "arg_perigee_deg": 87.8495,
      "mean_anomaly_deg": 272.2556,
      "mean_motion_rev_day": 14.79909129
    },
    {
      "epoch": "2026-04-02T19:30:36.294912Z",
      "apogee_km": 630.1503066884525,
      "perigee_km": 629.0028636660154,
      "latitude_deg": 6.913755517448206e-05,
      "longitude_deg": 152.64701854057776,
      "height_km": 630.3259414926631,
      "semi_major_axis_km": 7007.713585177234,
      "eccentricity": 8.187e-05,
      "inclination_deg": 51.9015,
      "raan_deg": 276.4544,
      "arg_perigee_deg": 90.3496,
      "mean_anomaly_deg": 269.7561,
      "mean_motion_rev_day": 14.79920026
    },
    {
      "epoch": "2026-04-03T16:34:47.688672Z",
      "apogee_km": 630.2108182252578,
      "perigee_km": 629.03211325132,
      "latitude_deg": -3.398234721111999e-05,
      "longitude_deg": -168.14774303045326,
      "height_km": 630.3257478663081,
      "semi_major_axis_km": 7007.758465738289,
      "eccentricity": 8.41e-05,
      "inclination_deg": 51.9017,
      "raan_deg": 272.5725,
      "arg_perigee_deg": 85.9543,
      "mean_anomaly_deg": 274.1515,
      "mean_motion_rev_day": 14.79905809
    },
    {
      "epoch": "2026-04-04T18:30:42.823008Z",
      "apogee_km": 630.111238412429,
      "perigee_km": 629.1287508817786,
      "latitude_deg": -5.836123318320516e-06,
      "longitude_deg": 157.02976311341763,
      "height_km": 630.3088562521635,
      "semi_major_axis_km": 7007.756994647103,
      "eccentricity": 7.01e-05,
      "inclination_deg": 51.9014,
      "raan_deg": 267.7947,
      "arg_perigee_deg": 83.3194,
      "mean_anomaly_deg": 276.7848,
      "mean_motion_rev_day": 14.79906275
    },
    {
      "epoch": "2026-04-05T12:20:24.050400Z",
      "apogee_km": 630.0016850629609,
      "perigee_km": 629.194954572944,
      "latitude_deg": -4.406034603170133e-05,
      "longitude_deg": -114.40852345044597,
      "height_km": 630.2856878312823,
      "semi_major_axis_km": 7007.735319817953,
      "eccentricity": 5.756e-05,
      "inclination_deg": 51.9023,
      "raan_deg": 264.5104,
      "arg_perigee_deg": 81.6027,
      "mean_anomaly_deg": 278.5,
      "mean_motion_rev_day": 14.79913141
    },
    {
      "epoch": "2026-04-05T17:12:07.959456Z",
      "apogee_km": 629.9898727591271,
      "perigee_km": 629.1928137373652,
      "latitude_deg": 2.6863437987532144e-05,
      "longitude_deg": 171.56319375816983,
      "height_km": 630.2748807676218,
      "semi_major_axis_km": 7007.728343248245,
      "eccentricity": 5.687e-05,
      "inclination_deg": 51.9023,
      "raan_deg": 263.6147,
      "arg_perigee_deg": 80.9427,
      "mean_anomaly_deg": 279.16,
      "mean_motion_rev_day": 14.79915351
    },
    {
      "epoch": "2026-04-07T17:49:25.975200Z",
      "apogee_km": 629.9571315456142,
      "perigee_km": 629.1204150582817,
      "latitude_deg": -5.0170541928343146e-05,
      "longitude_deg": 151.28334184695333,
      "height_km": 630.2620861500187,
      "semi_major_axis_km": 7007.675773301948,
      "eccentricity": 5.97e-05,
      "inclination_deg": 51.9026,
      "raan_deg": 254.6568,
      "arg_perigee_deg": 86.8532,
      "mean_anomaly_deg": 273.2498,
      "mean_motion_rev_day": 14.79932004
    },
    {
      "epoch": "2026-04-08T11:39:06.113088Z",
      "apogee_km": 629.9323804691076,
      "perigee_km": 629.1185105526865,
      "latitude_deg": 3.274077510129153e-05,
      "longitude_deg": -120.1508993442938,
      "height_km": 630.2347516936279,
      "semi_major_axis_km": 7007.662445510897,
      "eccentricity": 5.807e-05,
      "inclination_deg": 51.9021,
      "raan_deg": 251.3719,
      "arg_perigee_deg": 84.7929,
      "mean_anomaly_deg": 275.31,
      "mean_motion_rev_day": 14.79936226
    },
    {
      "epoch": "2026-04-09T16:49:29.072352Z",
      "apogee_km": 629.9227753613295,
      "perigee_km": 629.1993006158873,
      "latitude_deg": -1.629626331688446e-05,
      "longitude_deg": 155.67920083398886,
      "height_km": 630.2747806064283,
      "semi_major_axis_km": 7007.698037988608,
      "eccentricity": 5.162e-05,
      "inclination_deg": 51.9004,
      "raan_deg": 245.9958,
      "arg_perigee_deg": 84.8616,
      "mean_anomaly_deg": 275.2405,
      "mean_motion_rev_day": 14.79924951
    },
    {
      "epoch": "2026-04-11T15:49:32.586816Z",
      "apogee_km": 629.920386823519,
      "perigee_km": 629.1845794277915,
      "latitude_deg": 1.2766649157150405e-05,
      "longitude_deg": 160.07541411150856,
      "height_km": 630.3519114936105,
      "semi_major_axis_km": 7007.689483125655,
      "eccentricity": 5.25e-05,
      "inclination_deg": 51.9004,
      "raan_deg": 237.3369,
      "arg_perigee_deg": 98.3301,
      "mean_anomaly_deg": 261.7721,
      "mean_motion_rev_day": 14.79927661
    },
    {
      "epoch": "2026-04-13T01:51:38.591136Z",
      "apogee_km": 629.9595589704813,
      "perigee_km": 629.1058846449714,
      "latitude_deg": 2.0872530286645263e-05,
      "longitude_deg": 1.8826336066897513,
      "height_km": 630.3632489768235,
      "semi_major_axis_km": 7007.669721807726,
      "eccentricity": 6.091e-05,
      "inclination_deg": 51.9002,
      "raan_deg": 231.0669,
      "arg_perigee_deg": 101.4206,
      "mean_anomaly_deg": 258.6825,
      "mean_motion_rev_day": 14.79933921
    },
    {
      "epoch": "2026-04-14T15:08:12.995808Z",
      "apogee_km": 629.8448165906448,
      "perigee_km": 629.1706811658014,
      "latitude_deg": -3.2733319420147165e-05,
      "longitude_deg": 154.33916039738247,
      "height_km": 630.3813114199762,
      "semi_major_axis_km": 7007.644748878222,
      "eccentricity": 4.81e-05,
      "inclination_deg": 51.9025,
      "raan_deg": 224.1977,
      "arg_perigee_deg": 112.1546,
      "mean_anomaly_deg": 247.9467,
      "mean_motion_rev_day": 14.79941832
    },
    {
      "epoch": "2026-04-15T12:12:23.613696Z",
      "apogee_km": 630.0554946932252,
      "perigee_km": 629.0744164194466,
      "latitude_deg": -6.958059278301813e-06,
      "longitude_deg": -166.45165751343808,
      "height_km": 630.1052588564041,
      "semi_major_axis_km": 7007.701955556336,
      "eccentricity": 7e-05,
      "inclination_deg": 51.9037,
      "raan_deg": 220.3164,
      "arg_perigee_deg": 65.1637,
      "mean_anomaly_deg": 294.9398,
      "mean_motion_rev_day": 14.7992371
    },
    {
      "epoch": "2026-04-16T19:00:05.548032Z",
      "apogee_km": 630.8206551935164,
      "perigee_km": 628.8219854805557,
      "latitude_deg": -3.294382070616148e-05,
      "longitude_deg": 84.68619334322013,
      "height_km": 630.6936230365773,
      "semi_major_axis_km": 7007.958320337036,
      "eccentricity": 0.0001426,
      "inclination_deg": 51.9034,
      "raan_deg": 214.6437,
      "arg_perigee_deg": 97.3043,
      "mean_anomaly_deg": 262.8081,
      "mean_motion_rev_day": 14.79842503
    }
  ]
}